[
    {
        "Altitude(m)": 611965.2001659016,
        "Argument of Periapsis(deg)": 0.0,
        "Eccentricity": 0.0,
        "Inclination(deg)": 60.0,
        "Latitude(deg)": 59.14020645703506,
        "Longitude(deg)": 3.969628013615544,
        "Mean Anomaly(deg)": 81.8182,
        "RAAN(deg)": 30.0,
        "Satellite Name": "Test1 137",
        "Satellite Number": 137,
        "Semi-Major Axis(m)": 6980739.136638005,
        "Time(s)": 0
    },
    {
        "Altitude(m)": 611995.8263689245,
        "Argument of Periapsis(deg)": 0.00010418945913296404,
        "Eccentricity": 0.0,
        "Inclination(deg)": 60.0,
        "Latitude(deg)": 59.28330868420501,
        "Longitude(deg)": 5.102990638016793,
        "Mean Anomaly(deg)": 82.43830614546184,
        "RAAN(deg)": 29.99957995086026,
        "Satellite Name": "Test1 137",
        "Satellite Number": 137,
        "Semi-Major Axis(m)": 6980739.136638005,
        "Time(s)": 10
    }
]